[solar_system_observer]
name = Solar System Observer
parent = Sun
radius = 1.
halo = false
color = 0.,0.,0.
tex_map = lune.png
tex_halo = star16x16.png
lighting = false
albedo = 0.
coord_func = ell_orbit
orbit_Epoch = 2451545.0
orbit_Period = 700000000000
orbit_SemiMajorAxis = 7000000000
orbit_Eccentricity = 0
orbit_Inclination = 90
orbit_AscendingNode = 0
orbit_LongOfPericenter = 0
orbit_MeanLongitude = 90
rot_obliquity = 90
hidden = true

[1ceres]
name = Ceres
minor_planet_number = 1
parent = Sun
radius = 470
oblateness = 0.0
albedo = 0.113
lighting = true
orbit_visualization_period = 1680.15
halo = true
color = 1.0,1.0,1.0
tex_halo = star16x16.png
tex_map = nomap.png
coord_func = comet_orbit
orbit_Epoch = 2454200.5
orbit_MeanAnomaly = 215.80100
orbit_SemiMajorAxis = 2.7659565
orbit_Eccentricity = 0.0797602
orbit_ArgOfPericenter = 73.15069
orbit_AscendingNode = 80.40696
orbit_Inclination = 10.58671
type = asteroid

[2pallas]
name = Pallas
minor_planet_number = 2
parent = Sun
radius = 220
oblateness = 0.0
albedo = 0.159
lighting = true
orbit_visualization_period = 1686.333
halo = true
color = 1.0,1.0,1.0
tex_halo = star16x16.png
tex_map = nomap.png
coord_func = comet_orbit
orbit_Epoch = 2454200.5
orbit_MeanAnomaly = 199.72616
orbit_SemiMajorAxis = 2.7716684
orbit_Eccentricity = 0.2307589
orbit_ArgOfPericenter = 310.34481
orbit_AscendingNode = 173.13579
orbit_Inclination = 34.84182
type = asteroid

[3juno]
name = Juno
minor_planet_number = 3
parent = Sun
radius = 130
oblateness = 0.0
albedo = 0.238
lighting = true
orbit_visualization_period = 1591.93
halo = true
color = 1.0,1.0,1.0
tex_halo = star16x16.png
tex_map = nomap.png
coord_func = comet_orbit
orbit_Epoch = 2454200.5
orbit_MeanAnomaly = 121.22421
orbit_SemiMajorAxis = 2.6678842
orbit_Eccentricity = 0.2580231
orbit_ArgOfPericenter = 247.84192
orbit_AscendingNode = 170.12007
orbit_Inclination = 12.97036
type = asteroid

[4vesta]
name = Vesta
minor_planet_number = 4
parent = Sun
radius = 280
oblateness = 0.0
albedo = 0.423
lighting = true
orbit_visualization_period = 1325.46
halo = true
color = 1.0,1.0,1.0
tex_halo = star16x16.png
tex_map = nomap.png
coord_func = comet_orbit
orbit_Epoch = 2454200.5
orbit_MeanAnomaly = 341.59209
orbit_SemiMajorAxis = 2.3619563
orbit_Eccentricity = 0.0893657
orbit_ArgOfPericenter = 150.18003
orbit_AscendingNode = 103.91841
orbit_Inclination = 7.13380
type = asteroid

[136199eris]
name = Eris
minor_planet_number = 136199
parent = Sun
radius = 1300
oblateness = 0.0
albedo = 0.689
lighting = true
orbit_visualization_period = 204376.01809
halo = true
color = 1.0,1.0,1.0
rot_periode = 8
tex_halo = star16x16.png
tex_map = nomap.png
coord_func = comet_orbit
orbit_Epoch = 2454800.5
orbit_MeanAnomaly = 198.858225
orbit_SemiMajorAxis = 67.902798
orbit_Eccentricity = 0.4361532
orbit_ArgOfPericenter = 151.51961
orbit_AscendingNode = 35.95741
orbit_Inclination = 44.022944
type = plutoid

[90377sedna]
name = Sedna
parent = Sun
orbit_Inclination = 11.9279
coord_func = comet_orbit
orbit_Eccentricity = 0.859311
orbit_ArgOfPericenter = 310.9214
orbit_Epoch = 2456000.5
absolute_magnitude = 1.6
slope_parameter = 0.15
lighting = false
tex_map = nomap.png
color = 1.0, 1.0, 1.0
orbit_AscendingNode = 144.3803
orbit_MeanMotion = 7.8e-05
orbit_MeanAnomaly = 358.1959
minor_planet_number = 90377
orbit_SemiMajorAxis = 542.4247
albedo = 0.32
radius = 1643
type = plutoid

[50000quaoar]
name = Quaoar
parent = Sun
orbit_Inclination = 7.9956
coord_func = comet_orbit
orbit_Eccentricity = 0.037889
orbit_ArgOfPericenter = 161.6862
orbit_Epoch = 2456000.5
absolute_magnitude = 2.6
slope_parameter = 0.15
lighting = false
tex_map = nomap.png
color = 1.0, 1.0, 1.0
orbit_AscendingNode = 189.026
orbit_MeanMotion = 0.0034688
orbit_MeanAnomaly = 276.4486
minor_planet_number = 50000
orbit_SemiMajorAxis = 43.2202
albedo = 0.16
radius = 1037
type = plutoid

[90482orcus]
name = Orcus
parent = Sun
orbit_Inclination = 20.5493
coord_func = comet_orbit
orbit_Eccentricity = 0.224276
orbit_ArgOfPericenter = 73.6374
orbit_Epoch = 2456000.5
absolute_magnitude = 2.3
slope_parameter = 0.15
lighting = false
tex_map = nomap.png
color = 1.0, 1.0, 1.0
orbit_AscendingNode = 268.4595
orbit_MeanMotion = 0.0040039
orbit_MeanAnomaly = 168.1352
minor_planet_number = 90482
orbit_SemiMajorAxis = 39.27754
albedo = 0.25
radius = 1190
type = plutoid

[136108haumea]
name = Haumea
parent = Sun
orbit_Inclination = 28.202
coord_func = comet_orbit
orbit_Eccentricity = 0.197432
orbit_ArgOfPericenter = 240.585
orbit_Epoch = 2456000.5
absolute_magnitude = 0.2
slope_parameter = 0.15
lighting = false
tex_map = nomap.png
color = 1.0, 1.0, 1.0
orbit_AscendingNode = 121.9004
orbit_MeanMotion = 0.0034967
orbit_MeanAnomaly = 205.216
minor_planet_number = 136108
orbit_SemiMajorAxis = 42.98956
albedo = 0.73
radius = 3130
type = plutoid

[136472makemake]
name = Makemake
parent = Sun
orbit_Inclination = 28.99795761254687
coord_func = comet_orbit
orbit_Eccentricity = 0.1566358723166362
orbit_ArgOfPericenter = 295.8208634497294
orbit_Epoch =  2454135.5
absolute_magnitude = -0.4
slope_parameter = 0.15
lighting = false
tex_map = nomap.png
color = 1.0, 1.0, 1.0
orbit_AscendingNode = 79.59590003989989
orbit_MeanMotion = 0.003198605
orbit_MeanAnomaly = 148.7993929490911
minor_planet_number = 136472
orbit_SemiMajorAxis = 45.62073490995235
albedo = 0.78
radius = 1400
type = plutoid

[20000varuna]
parent = Sun
orbit_Inclination = 17.1431
coord_func = comet_orbit
orbit_Eccentricity = 0.054294
orbit_ArgOfPericenter = 272.5375
name = Varuna
orbit_Epoch = 2456200.5
absolute_magnitude = 3.6
slope_parameter = 0.15
lighting = false
tex_map = nomap.png
color = 1.0, 1.0, 1.0
orbit_AscendingNode = 97.2614
orbit_MeanMotion = 0.003477
orbit_MeanAnomaly = 98.8487
minor_planet_number = 20000
orbit_SemiMajorAxis = 43.15171
albedo = 0.15
radius = 654
type = plutoid

[2250882007or10]
parent = Sun
orbit_Inclination = 30.8118
coord_func = comet_orbit
orbit_Eccentricity = 0.502036
orbit_ArgOfPericenter = 206.7698
name = 2007 OR10
orbit_Epoch = 2456200.5
absolute_magnitude = 2
slope_parameter = 0.15
lighting = false
tex_map = nomap.png
color = 1.0, 1.0, 1.0
orbit_AscendingNode = 336.8394
orbit_MeanMotion = 0.0017991
orbit_MeanAnomaly = 102.6175
minor_planet_number = 225088
orbit_SemiMajorAxis = 66.95198
albedo = 0.19
radius = 1367
type = plutoid

[c2011l4(panstarrs)]
parent = Sun
orbit_Inclination = 84.2073
coord_func = comet_orbit
orbit_Eccentricity = 1.000032
orbit_ArgOfPericenter = 333.6514
absolute_magnitude = 5.5
name = C/2011 L4 (PANSTARRS)
slope_parameter = 4
lighting = false
tex_map = nomap.png
color = 1.0, 1.0, 1.0
orbit_AscendingNode = 65.6659
albedo = 1
radius = 5
orbit_PericenterDistance = 0.301545
type = comet
orbit_TimeAtPericenter = 2456361.66969907

[c2012s1(ison)]
parent = Sun
orbit_Inclination = 61.8916
coord_func = comet_orbit
orbit_Eccentricity = 1.000004
orbit_ArgOfPericenter = 345.5129
absolute_magnitude = 7
name = C/2012 S1 (ISON)
slope_parameter = 3.2
lighting = false
tex_map = nomap.png
color = 1.0, 1.0, 1.0
orbit_AscendingNode = 295.7319
albedo = 1
radius = 5
orbit_PericenterDistance = 0.012499
type = comet
orbit_TimeAtPericenter = 2456625.29388889

[2012da14]
parent = Sun
orbit_Inclination = 11.6062
coord_func = comet_orbit
orbit_Eccentricity = 0.089672
orbit_ArgOfPericenter = 195.606
absolute_magnitude = 24.4
name = 2012 DA14
orbit_Epoch = 2456400.5
slope_parameter = 0.15
lighting = false
tex_map = nomap.png
color = 1.0, 1.0, 1.0
orbit_AscendingNode = 146.9959
orbit_MeanMotion = 1.1351258
orbit_MeanAnomaly = 231.0252
orbit_SemiMajorAxis = 0.910137
albedo = 0.15
radius = 1
type = asteroid
